FENGYUN 1C DEB          
1 29918U 99025HQ  26066.10290691  .00003852  00000+0  13837-2 0  9993
2 29918  98.8448 155.4989 0014119  80.2621  37.6040 14.34380445990035
FENGYUN 1C DEB          
1 29919U 99025HR  26066.40184315  .00000329  00000+0  29945-3 0  9996
2 29919  98.4902 217.8253 0138685 111.6274 304.5764 13.85177405967074
FENGYUN 1C DEB          
1 29920U 99025HS  26066.28806189  .00001682  00000+0  10149-2 0  9992
2 29920  98.3909 279.3567 0126066  41.0734 319.9844 14.03960523974743
FENGYUN 1C DEB          
1 29921U 99025HT  26066.59736575  .00000674  00000+0  42694-3 0  9999
2 29921  98.7886  75.2851 0045399 189.2444 292.0303 14.06768079980690
FENGYUN 1C DEB          
1 29922U 99025HU  26066.46261863  .00000586  00000+0  42261-3 0  9991
2 29922  99.1205 128.5305 0094026 133.4728 227.4304 13.98638547976250
FENGYUN 1C DEB          
1 29923U 99025HV  26066.00328018  .00001034  00000+0  56524-3 0  9994
2 29923  98.6888  76.9425 0016128 292.5907  94.4635 14.14079387984667
FENGYUN 1C DEB          
1 29924U 99025HW  26066.54512053  .00000130  00000+0  99501-4 0  9997
2 29924  98.7327  81.8690 0027198  20.6968 107.9369 14.08918045984022
FENGYUN 1C DEB          
1 29926U 99025HY  26066.44900242  .00002341  00000+0  60838-3 0  9995
2 29926  98.2932  56.8594 0249602  47.4378 107.6623 14.33598023997947
FENGYUN 1C DEB          
1 29927U 99025HZ  26066.59736488  .00024332  00000+0  33399-2 0  9996
2 29927  99.0737 106.0114 0015033 305.3574 182.9042 14.78297722998997
FENGYUN 1C DEB          
1 29928U 99025JA  26066.63484689  .00000817  00000+0  66737-3 0  9990
2 29928  99.5761  98.1528 0142169 236.6241 250.4466 13.88243713966692
FENGYUN 1C DEB          
1 29929U 99025JB  26066.35120654  .00003234  00000+0  19984-2 0  9996
2 29929  98.6298 346.0262 0131314 301.0610 182.2316 14.01813054971414
FENGYUN 1C DEB          
1 29930U 99025JC  26066.62392482  .00000537  00000+0  23571-3 0  9999
2 29930  99.0364 315.8492 0163467 170.5140 249.1764 14.20942916990967
FENGYUN 1C DEB          
1 29931U 99025JD  26066.66366847  .00000020  00000+0  40041-4 0  9999
2 29931  98.8482 104.7875 0031153 214.3230 270.0019 14.03949219980047
FENGYUN 1C DEB          
1 29932U 99025JE  26066.51398581  .00000722  00000+0  37886-3 0  9995
2 29932  98.6336  79.7061 0037527 184.5458 327.6136 14.16889440987840
FENGYUN 1C DEB          
1 29933U 99025JF  26066.55744924  .00028748  00000+0  48306-2 0  9992
2 29933  98.7445 180.4921 0005040 104.0470  24.1570 14.69561688997496
FENGYUN 1C DEB          
1 29934U 99025JG  26066.60834400  .00005102  00000+0  90179-3 0  9993
2 29934  98.8887 125.2743 0099542 352.0992   7.8635 14.64697174 10111
