[{"OBJECT_NAME":"FENGYUN 1C DEB","OBJECT_ID":"1999-025HQ","EPOCH":"2026-03-07T02:28:11.157024","MEAN_MOTION":14.34380445,"ECCENTRICITY":0.00141198,"INCLINATION":98.8448,"RA_OF_ASC_NODE":155.4989,"ARG_OF_PERICENTER":80.2621,"MEAN_ANOMALY":37.604,"EPHEMERIS_TYPE":0,"CLASSIFICATION_TYPE":"U","NORAD_CAT_ID":29918,"ELEMENT_SET_NO":999,"REV_AT_EPOCH":99003,"BSTAR":0.0013836979,"MEAN_MOTION_DOT":3.852e-5,"MEAN_MOTION_DDOT":0},{"OBJECT_NAME":"FENGYUN 1C DEB","OBJECT_ID":"1999-025HR","EPOCH":"2026-03-07T09:38:39.248160","MEAN_MOTION":13.85177405,"ECCENTRICITY":0.01386858,"INCLINATION":98.4902,"RA_OF_ASC_NODE":217.8253,"ARG_OF_PERICENTER":111.6274,"MEAN_ANOMALY":304.5764,"EPHEMERIS_TYPE":0,"CLASSIFICATION_TYPE":"U","NORAD_CAT_ID":29919,"ELEMENT_SET_NO":999,"REV_AT_EPOCH":96707,"BSTAR":0.00029945255,"MEAN_MOTION_DOT":3.29e-6,"MEAN_MOTION_DDOT":0},{"OBJECT_NAME":"FENGYUN 1C DEB","OBJECT_ID":"1999-025HS","EPOCH":"2026-03-07T06:54:48.547296","MEAN_MOTION":14.03960523,"ECCENTRICITY":0.0126066,"INCLINATION":98.3909,"RA_OF_ASC_NODE":279.3567,"ARG_OF_PERICENTER":41.0734,"MEAN_ANOMALY":319.9844,"EPHEMERIS_TYPE":0,"CLASSIFICATION_TYPE":"U","NORAD_CAT_ID":29920,"ELEMENT_SET_NO":999,"REV_AT_EPOCH":97474,"BSTAR":0.0010149,"MEAN_MOTION_DOT":1.682e-5,"MEAN_MOTION_DDOT":0},{"OBJECT_NAME":"FENGYUN 1C DEB","OBJECT_ID":"1999-025HT","EPOCH":"2026-03-07T14:20:12.400800","MEAN_MOTION":14.06768079,"ECCENTRICITY":0.00453991,"INCLINATION":98.7886,"RA_OF_ASC_NODE":75.2851,"ARG_OF_PERICENTER":189.2444,"MEAN_ANOMALY":292.0303,"EPHEMERIS_TYPE":0,"CLASSIFICATION_TYPE":"U","NORAD_CAT_ID":29921,"ELEMENT_SET_NO":999,"REV_AT_EPOCH":98069,"BSTAR":0.00042694037,"MEAN_MOTION_DOT":6.74e-6,"MEAN_MOTION_DDOT":0},{"OBJECT_NAME":"FENGYUN 1C DEB","OBJECT_ID":"1999-025HU","EPOCH":"2026-03-07T11:06:10.249632","MEAN_MOTION":13.98638547,"ECCENTRICITY":0.00940269,"INCLINATION":99.1205,"RA_OF_ASC_NODE":128.5305,"ARG_OF_PERICENTER":133.4728,"MEAN_ANOMALY":227.4304,"EPHEMERIS_TYPE":0,"CLASSIFICATION_TYPE":"U","NORAD_CAT_ID":29922,"ELEMENT_SET_NO":999,"REV_AT_EPOCH":97625,"BSTAR":0.00042260598,"MEAN_MOTION_DOT":5.86e-6,"MEAN_MOTION_DDOT":0},{"OBJECT_NAME":"FENGYUN 1C DEB","OBJECT_ID":"1999-025HV","EPOCH":"2026-03-07T00:04:43.407552","MEAN_MOTION":14.14079387,"ECCENTRICITY":0.00161281,"INCLINATION":98.6888,"RA_OF_ASC_NODE":76.9425,"ARG_OF_PERICENTER":292.5907,"MEAN_ANOMALY":94.4635,"EPHEMERIS_TYPE":0,"CLASSIFICATION_TYPE":"U","NORAD_CAT_ID":29923,"ELEMENT_SET_NO":999,"REV_AT_EPOCH":98466,"BSTAR":0.00056523746,"MEAN_MOTION_DOT":1.034e-5,"MEAN_MOTION_DDOT":0},{"OBJECT_NAME":"FENGYUN 1C DEB","OBJECT_ID":"1999-025HW","EPOCH":"2026-03-07T13:04:58.413792","MEAN_MOTION":14.08918045,"ECCENTRICITY":0.00271983,"INCLINATION":98.7327,"RA_OF_ASC_NODE":81.869,"ARG_OF_PERICENTER":20.6968,"MEAN_ANOMALY":107.9369,"EPHEMERIS_TYPE":0,"CLASSIFICATION_TYPE":"U","NORAD_CAT_ID":29924,"ELEMENT_SET_NO":999,"REV_AT_EPOCH":98402,"BSTAR":9.9501449e-5,"MEAN_MOTION_DOT":1.3e-6,"MEAN_MOTION_DDOT":0},{"OBJECT_NAME":"FENGYUN 1C DEB","OBJECT_ID":"1999-025HY","EPOCH":"2026-03-07T10:46:33.809088","MEAN_MOTION":14.33598023,"ECCENTRICITY":0.02496026,"INCLINATION":98.2932,"RA_OF_ASC_NODE":56.8594,"ARG_OF_PERICENTER":47.4378,"MEAN_ANOMALY":107.6623,"EPHEMERIS_TYPE":0,"CLASSIFICATION_TYPE":"U","NORAD_CAT_ID":29926,"ELEMENT_SET_NO":999,"REV_AT_EPOCH":99794,"BSTAR":0.00060838193,"MEAN_MOTION_DOT":2.341e-5,"MEAN_MOTION_DDOT":0},{"OBJECT_NAME":"FENGYUN 1C DEB","OBJECT_ID":"1999-025HZ","EPOCH":"2026-03-07T14:20:12.325632","MEAN_MOTION":14.78297722,"ECCENTRICITY":0.00150339,"INCLINATION":99.0737,"RA_OF_ASC_NODE":106.0114,"ARG_OF_PERICENTER":305.3574,"MEAN_ANOMALY":182.9042,"EPHEMERIS_TYPE":0,"CLASSIFICATION_TYPE":"U","NORAD_CAT_ID":29927,"ELEMENT_SET_NO":999,"REV_AT_EPOCH":99899,"BSTAR":0.0033399302,"MEAN_MOTION_DOT":0.00024332,"MEAN_MOTION_DDOT":0},{"OBJECT_NAME":"FENGYUN 1C DEB","OBJECT_ID":"1999-025JA","EPOCH":"2026-03-07T15:14:10.771296","MEAN_MOTION":13.88243713,"ECCENTRICITY":0.01421695,"INCLINATION":99.5761,"RA_OF_ASC_NODE":98.1528,"ARG_OF_PERICENTER":236.6241,"MEAN_ANOMALY":250.4466,"EPHEMERIS_TYPE":0,"CLASSIFICATION_TYPE":"U","NORAD_CAT_ID":29928,"ELEMENT_SET_NO":999,"REV_AT_EPOCH":96669,"BSTAR":0.0006673703,"MEAN_MOTION_DOT":8.17e-6,"MEAN_MOTION_DDOT":0},{"OBJECT_NAME":"FENGYUN 1C DEB","OBJECT_ID":"1999-025JB","EPOCH":"2026-03-07T08:25:44.245056","MEAN_MOTION":14.01813054,"ECCENTRICITY":0.0131314,"INCLINATION":98.6298,"RA_OF_ASC_NODE":346.0262,"ARG_OF_PERICENTER":301.061,"MEAN_ANOMALY":182.2316,"EPHEMERIS_TYPE":0,"CLASSIFICATION_TYPE":"U","NORAD_CAT_ID":29929,"ELEMENT_SET_NO":999,"REV_AT_EPOCH":97141,"BSTAR":0.0019984342,"MEAN_MOTION_DOT":3.234e-5,"MEAN_MOTION_DDOT":0},{"OBJECT_NAME":"FENGYUN 1C DEB","OBJECT_ID":"1999-025JC","EPOCH":"2026-03-07T14:58:27.104448","MEAN_MOTION":14.20942916,"ECCENTRICITY":0.01634679,"INCLINATION":99.0364,"RA_OF_ASC_NODE":315.8492,"ARG_OF_PERICENTER":170.514,"MEAN_ANOMALY":249.1764,"EPHEMERIS_TYPE":0,"CLASSIFICATION_TYPE":"U","NORAD_CAT_ID":29930,"ELEMENT_SET_NO":999,"REV_AT_EPOCH":99096,"BSTAR":0.00023570693,"MEAN_MOTION_DOT":5.37e-6,"MEAN_MOTION_DDOT":0},{"OBJECT_NAME":"FENGYUN 1C DEB","OBJECT_ID":"1999-025JD","EPOCH":"2026-03-07T15:55:40.955808","MEAN_MOTION":14.03949219,"ECCENTRICITY":0.00311539,"INCLINATION":98.8482,"RA_OF_ASC_NODE":104.7875,"ARG_OF_PERICENTER":214.323,"MEAN_ANOMALY":270.0019,"EPHEMERIS_TYPE":0,"CLASSIFICATION_TYPE":"U","NORAD_CAT_ID":29931,"ELEMENT_SET_NO":999,"REV_AT_EPOCH":98004,"BSTAR":4.0040946e-5,"MEAN_MOTION_DOT":2.0e-7,"MEAN_MOTION_DDOT":0},{"OBJECT_NAME":"FENGYUN 1C DEB","OBJECT_ID":"1999-025JE","EPOCH":"2026-03-07T12:20:08.373984","MEAN_MOTION":14.1688944,"ECCENTRICITY":0.00375276,"INCLINATION":98.6336,"RA_OF_ASC_NODE":79.7061,"ARG_OF_PERICENTER":184.5458,"MEAN_ANOMALY":327.6136,"EPHEMERIS_TYPE":0,"CLASSIFICATION_TYPE":"U","NORAD_CAT_ID":29932,"ELEMENT_SET_NO":999,"REV_AT_EPOCH":98784,"BSTAR":0.00037886135,"MEAN_MOTION_DOT":7.22e-6,"MEAN_MOTION_DDOT":0},{"OBJECT_NAME":"FENGYUN 1C DEB","OBJECT_ID":"1999-025JF","EPOCH":"2026-03-07T13:22:43.614336","MEAN_MOTION":14.69561688,"ECCENTRICITY":0.00050406,"INCLINATION":98.7445,"RA_OF_ASC_NODE":180.4921,"ARG_OF_PERICENTER":104.047,"MEAN_ANOMALY":24.157,"EPHEMERIS_TYPE":0,"CLASSIFICATION_TYPE":"U","NORAD_CAT_ID":29933,"ELEMENT_SET_NO":999,"REV_AT_EPOCH":99749,"BSTAR":0.0048306106,"MEAN_MOTION_DOT":0.00028748,"MEAN_MOTION_DDOT":0},{"OBJECT_NAME":"FENGYUN 1C DEB","OBJECT_ID":"1999-025JG","EPOCH":"2026-03-07T14:36:00.921600","MEAN_MOTION":14.64697174,"ECCENTRICITY":0.00995429,"INCLINATION":98.8887,"RA_OF_ASC_NODE":125.2743,"ARG_OF_PERICENTER":352.0992,"MEAN_ANOMALY":7.8635,"EPHEMERIS_TYPE":0,"CLASSIFICATION_TYPE":"U","NORAD_CAT_ID":29934,"ELEMENT_SET_NO":999,"REV_AT_EPOCH":1011,"BSTAR":0.00090179344,"MEAN_MOTION_DOT":5.102e-5,"MEAN_MOTION_DDOT":0}]
